NORAD_CAT_ID,OBJECT_NAME,OBJECT_TYPE,EPOCH,MEAN_MOTION,ECCENTRICITY,INCLINATION,RA_OF_ASC_NODE,ARG_OF_PERICENTER,MEAN_ANOMALY,BSTAR,MEAN_MOTION_DOT,MEAN_MOTION_DDOT,TLE_LINE0,TLE_LINE1,TLE_LINE2,SEMIMAJOR_AXIS,PERIOD,APOGEE,PERIGEE,DECAYED
53563.0,STARLINK-4561,PAYLOAD,2022-11-04 00:00:00,15.35320779,0.0001336,53.2175,139.7211,48.6239,324.7839,-0.035791,-0.01136636,0.0,0 STARLINK-4561,1 53563U 22101AN  22308.00001157 -.01136636  00000-0 -35791-1 0  9991,2 53563  53.2175 139.7211 0001336  48.6239 324.7839 15.35320779  1308,6838.105,93.791,460.883,459.056,0.0
53563.0,STARLINK-4561,PAYLOAD,2022-11-04 06:00:00,15.34713641,0.0001281,53.2175,138.5513,57.6627,258.0252,-0.036706,-0.01142591,0.0,0 STARLINK-4561,1 53563U 22101AN  22308.25001157 -.01142591  00000-0 -36706-1 0  9992,2 53563  53.2175 138.5513 0001281  57.6627 258.0252 15.34713641 12033,6839.908,93.829,462.649,460.897,0.0
53563.0,STARLINK-4561,PAYLOAD,2022-11-04 14:00:01,15.33898326,0.0001286999999999,53.2177,136.9951,56.3546,301.518,-0.037542,-0.01138877,0.0,0 STARLINK-4561,1 53563U 22101AN  22308.58334491 -.01138877  00000-0 -37542-1 0  9999,2 53563  53.2177 136.9951 0001287  56.3546 301.5180 15.33898326  1300,6842.331999999999,93.878,465.077,463.316,0.0
53563.0,STARLINK-4561,PAYLOAD,2022-11-05 00:00:00,15.32877173,0.0001364,53.217,135.0547,67.229,71.9994,-0.038553,-0.01132767,0.0,0 STARLINK-4561,1 53563U 22101AN  22309.00001157 -.01132767  00000-0 -38553-1 0  9992,2 53563  53.2170 135.0547 0001364  67.2290  71.9994 15.32877173  1304,6845.37,93.941,468.169,466.301,0.0
53563.0,STARLINK-4561,PAYLOAD,2022-11-05 06:00:00,15.32303171,0.0001344,53.2168,133.8896,55.76,23.5323,-0.041214,-0.01184076,0.0,0 STARLINK-4561,1 53563U 22101AN  22309.25001157 -.01184076  00000-0 -41214-1 0  9997,2 53563  53.2168 133.8896 0001344  55.7600  23.5323 15.32303171 12188,6847.08,93.976,469.865,468.024,0.0
53563.0,STARLINK-4561,PAYLOAD,2022-11-05 14:00:01,15.31461283,0.0001389,53.2168,132.3389,63.1509,55.4694,-0.040779,-0.01144679,0.0,0 STARLINK-4561,1 53563U 22101AN  22309.58335648 -.01144679  00000-0 -40779-1 0  9998,2 53563  53.2168 132.3389 0001389  63.1509  55.4694 15.31461283  1304,6849.589,94.028,472.405,470.502,0.0
53563.0,STARLINK-4561,PAYLOAD,2022-11-05 22:00:01,15.30662395,0.0001404,53.2166,130.7927,68.5092,88.3748,-0.042568,-0.01163517,0.0,0 STARLINK-4561,1 53563U 22101AN  22309.91668981 -.01163517  00000-0 -42568-1 0  9994,2 53563  53.2166 130.7927 0001404  68.5092  88.3748 15.30662395 12286,6851.972,94.077,474.799,472.875,0.0
53563.0,STARLINK-4561,PAYLOAD,2022-11-06 14:00:01,15.29042952,0.0001447,53.2163,127.7,66.7289,163.7007,-0.045212,-0.01190086,0.0,0 STARLINK-4561,1 53563U 22101AN  22310.58334491 -.01190086  00000-0 -45212-1 0  9995,2 53563  53.2163 127.7000 0001447  66.7289 163.7007 15.29042952  1302,6856.809,94.177,479.666,477.682,0.0
53563.0,STARLINK-4561,PAYLOAD,2022-11-07 06:00:00,15.27405297,0.0001284999999999,53.2165,124.6171,63.4473,236.689,-0.047001,-0.011774,0.0,0 STARLINK-4561,1 53563U 22101AN  22311.25001157 -.01177400  00000-0 -47001-1 0  9993,2 53563  53.2165 124.6171 0001285  63.4473 236.6890 15.27405297 12493,6861.709,94.278,484.456,482.693,0.0
53563.0,STARLINK-4561,PAYLOAD,2022-11-07 22:00:00,15.25757918,0.0001315,53.2175,121.5428,55.901,310.0332,-0.048098,-0.01148288,0.0,0 STARLINK-4561,1 53563U 22101AN  22311.91667824 -.01148288  00000-0 -48098-1 0  9994,2 53563  53.2175 121.5428 0001315  55.9010 310.0332 15.25757918  1306,6866.647,94.379,489.415,487.61,0.0
53563.0,STARLINK-4561,PAYLOAD,2022-11-08 08:00:01,15.24741515,0.0001392,53.2173,119.6225,64.7819,70.2857,-0.049684,-0.01150144,0.0,0 STARLINK-4561,1 53563U 22101AN  22312.33334491 -.01150144  00000-0 -49684-1 0  9998,2 53563  53.2173 119.6225 0001392  64.7819  70.2857 15.24741515 12659,6869.699000000001,94.442,492.52,490.607,0.0
53563.0,STARLINK-4561,PAYLOAD,2022-11-08 14:00:01,15.2416465,0.000132,53.2161,118.4736,67.5954,0.2005,-0.05272,-0.01195539,0.0,0 STARLINK-4561,1 53563U 22101AN  22312.58334491 -.01195539  00000-0 -52720-1 0  9997,2 53563  53.2161 118.4736 0001320  67.5954   0.2005 15.24164650  1309,6871.432,94.478,494.204,492.39,0.0
53563.0,STARLINK-4561,PAYLOAD,2022-11-08 22:00:00,15.23327981,0.0001474,53.2161,116.9442,64.2536,33.025,-0.052487,-0.01163496,0.0,0 STARLINK-4561,1 53563U 22101AN  22312.91667824 -.01163496  00000-0 -52487-1 0  9990,2 53563  53.2161 116.9442 0001474  64.2536  33.0250 15.23327981  1309,6873.948,94.53,496.826,494.8,0.0
53563.0,STARLINK-4561,PAYLOAD,2022-11-09 06:00:00,15.22502453,0.0001351999999999,53.2174,115.413,68.6316,57.1487,-0.052999,-0.01147575,0.0,0 STARLINK-4561,1 53563U 22101AN  22313.25001157 -.01147575  00000-0 -52999-1 0  9997,2 53563  53.2174 115.4130 0001352  68.6316  57.1487 15.22502453 12792,6876.432,94.581,499.227,497.36800000000005,0.0
53563.0,STARLINK-4561,PAYLOAD,2022-11-09 14:00:01,15.21706878,0.0001361,53.2161,113.886,69.7781,83.5098,-0.0555809999999999,-0.01173257,0.0,0 STARLINK-4561,1 53563U 22101AN  22313.58334491 -.01173257  00000-0 -55581-1 0  9999,2 53563  53.2161 113.8860 0001361  69.7781  83.5098 15.21706878  1300,6878.829000000002,94.631,501.63,499.758,0.0
53563.0,STARLINK-4561,PAYLOAD,2022-11-10 00:00:00,15.20688022,0.0001288,53.2162,111.9808,65.6568,210.6525,-0.05721,-0.01171972,0.0,0 STARLINK-4561,1 53563U 22101AN  22314.00001157 -.01171972  00000-0 -57210-1 0  9990,2 53563  53.2162 111.9808 0001288  65.6568 210.6525 15.20688022  1305,6881.901,94.694,504.652,502.88,0.0
53563.0,STARLINK-4561,PAYLOAD,2022-11-10 06:00:00,15.200594699999998,0.0001421,53.2171,110.8369,68.0662,137.33100000000002,-0.056798,-0.01144539,0.0,0 STARLINK-4561,1 53563U 22101AN  22314.25001157 -.01144539  00000-0 -56798-1 0  9996,2 53563  53.2171 110.8369 0001421  68.0662 137.3310 15.20059470 12944,6883.7980000000025,94.733,506.641,504.685,0.0
53563.0,STARLINK-4561,PAYLOAD,2022-11-10 14:00:01,15.19269275,0.0001395999999999,53.2162,109.3158,74.5492,155.41899999999995,-0.059929,-0.0117726,0.0,0 STARLINK-4561,1 53563U 22101AN  22314.58334491 -.01177260  00000-0 -59929-1 0  9998,2 53563  53.2162 109.3158 0001396  74.5492 155.4190 15.19269275  1306,6886.185,94.782,509.011,507.088,0.0
53563.0,STARLINK-4561,PAYLOAD,2022-11-10 22:00:00,15.18410809,0.000147,53.2158,107.7977,66.3217,187.2719,-0.057859,-0.01113666,0.0,0 STARLINK-4561,1 53563U 22101AN  22314.91667824 -.01113666  00000-0 -57859-1 0  9994,2 53563  53.2158 107.7977 0001470  66.3217 187.2719 15.18410809 13043,6888.78,94.836,511.658,509.632,0.0
53563.0,STARLINK-4561,PAYLOAD,2022-11-11 14:00:01,15.16825315,0.0001281999999999,53.2162,104.7627,82.4519,215.3994,-0.064086,-0.01173169,0.0,0 STARLINK-4561,1 53563U 22101AN  22315.58334491 -.01173169  00000-0 -64086-1 0  9993,2 53563  53.2162 104.7627 0001282  82.4519 215.3994 15.16825315 13152,6893.58,94.935,516.328,514.561,0.0
53563.0,STARLINK-4561,PAYLOAD,2022-11-11 22:00:00,15.16022032,0.0001361999999999,53.2157,103.25,64.3147,254.2015,-0.066372,-0.01186204,0.0,0 STARLINK-4561,1 53563U 22101AN  22315.91667824 -.01186204  00000-0 -66372-1 0  9993,2 53563  53.2157 103.2500 0001362  64.3147 254.2015 15.16022032  1300,6896.015,94.985,518.819,516.94,0.0
53563.0,STARLINK-4561,PAYLOAD,2022-11-12 14:00:01,15.14385422,0.0001230999999999,53.2161,100.2265,80.1503,276.7813,-0.06881,-0.01174653,0.0,0 STARLINK-4561,1 53563U 22101AN  22316.58334491 -.01174653  00000-0 -68810-1 0  9992,2 53563  53.2161 100.2265 0001231  80.1503 276.7813 15.14385422  1305,6900.982,95.088,523.697,521.997,0.0
53563.0,STARLINK-4561,PAYLOAD,2022-11-12 22:00:00,15.13583903,0.0001368,53.2157,98.7194,61.1825,313.4796,-0.071377,-0.01189826,0.0,0 STARLINK-4561,1 53563U 22101AN  22316.91667824 -.01189826  00000-0 -71377-1 0  9998,2 53563  53.2157  98.7194 0001368  61.1825 313.4796 15.13583903 13359,6903.418000000002,95.138,526.227,524.339,0.0
53563.0,STARLINK-4561,PAYLOAD,2022-11-13 00:00:00,15.1335425,0.0001466,53.2163,98.3422,60.1867,48.7716,-0.069627,-0.01156024,0.0,0 STARLINK-4561,1 53563U 22101AN  22317.00001157 -.01156024  00000-0 -69627-1 0  9999,2 53563  53.2163  98.3422 0001466  60.1867  48.7716 15.13354250  1303,6904.116,95.153,526.994,524.969,0.0
53563.0,STARLINK-4561,PAYLOAD,2022-11-13 14:00:01,15.11973983,0.0001145,53.2161,95.7076,78.0457,329.1511,-0.076375,-0.01214489,0.0,0 STARLINK-4561,1 53563U 22101AN  22317.58334491 -.01214489  00000-0 -76375-1 0  9990,2 53563  53.2161  95.7076 0001145  78.0457 329.1511 15.11973983  1301,6908.318,95.24,530.974,529.3919999999998,0.0
53563.0,STARLINK-4561,PAYLOAD,2022-11-13 22:00:00,15.11137314,0.0001431999999999,53.2156,94.2059,62.7355,359.2764,-0.075963,-0.0118282,0.0,0 STARLINK-4561,1 53563U 22101AN  22317.91667824 -.01182820  00000-0 -75963-1 0  9991,2 53563  53.2156  94.2059 0001432  62.7355 359.2764 15.11137314  1300,6910.8669999999975,95.292,533.722,531.743,0.0
53563.0,STARLINK-4561,PAYLOAD,2022-11-14 14:00:01,15.09347102,0.0001585,53.2174,91.2062,69.8559,18.8631,-0.039756,-0.00598154,0.0,0 STARLINK-4561,1 53563U 22101AN  22318.58334491 -.00598154  00000-0 -39756-1 0  9996,2 53563  53.2174  91.2062 0001585  69.8559  18.8631 15.09347102 13606,6916.331,95.405,539.2919999999998,537.1,0.0
53563.0,STARLINK-4561,PAYLOAD,2022-11-14 22:00:00,15.08831673,0.0001509,53.2172,89.7094,67.4678,33.2058,0.00052455,8.068e-05,0.0,0 STARLINK-4561,1 53563U 22101AN  22318.91667824  .00008068  00000-0  52455-3 0  9993,2 53563  53.2172  89.7094 0001509  67.4678  33.2058 15.08831673  1301,6917.906,95.438,540.815,538.727,0.0
53563.0,STARLINK-4561,PAYLOAD,2022-11-15 14:00:01,15.08859256,0.0001538,53.213,86.7131,66.34,57.547,-0.00089405,-0.00014496,0.0,0 STARLINK-4561,1 53563U 22101AN  22319.58334491 -.00014496  00000-0 -89405-3 0  9997,2 53563  53.2130  86.7131 0001538  66.3400  57.5470 15.08859256  1301,6917.821999999999,95.436,540.75,538.623,0.0
